     3.04           N: GNSS NAV DATA    M: MIXED            RINEX VERSION / TYPE
ssrcrin-13.4.4x                         20240222 000000 UTC PGM / RUN BY / DATE 
                                                            END OF HEADER       
E34 2024 02 22 22 10 00-9.612663416192E-05-2.088995643135E-12 0.000000000000E+00
     6.900000000000E+01 1.958125000000E+02 2.540105805603E-09-2.787300445292E+00
     9.080395102501E-06 1.117470674217E-05 6.861984729767E-06 5.440613395691E+03
     4.254000000000E+05 1.117587089539E-08-2.494738701526E+00-1.117587089539E-08
     1.000105766671E+00 2.116562500000E+02-1.347665381661E+00-5.405225149324E-09
     3.785871982478E-10 5.170000000000E+02 2.302000000000E+03
     3.120000000000E+00 0.000000000000E+00 3.725290298462E-09 4.656612873077E-09
     4.260650000000E+05
S58 2024 02 22 22 21 20 0.000000000000E+00 0.000000000000E+00 4.260950000000E+05
     2.478345800000E+04 0.000000000000E+00 0.000000000000E+00 6.300000000000E+01
    -3.411150400000E+04 0.000000000000E+00 0.000000000000E+00 3.276700000000E+04
     0.000000000000E+00 0.000000000000E+00 0.000000000000E+00 4.100000000000E+01
R21 2024 02 22 22 15 00-7.908977568150E-05-2.728484105319E-12 4.260900000000E+05
    -1.902540771484E+04 3.528823852539E-01-3.725290298462E-09 0.000000000000E+00
    -1.642250634766E+04 5.424041748047E-01-0.000000000000E+00 4.000000000000E+00
     4.418620605469E+03 3.535079002380E+00-1.862645149231E-09 0.000000000000E+00
S36 2024 02 22 22 22 08 0.000000000000E+00 0.000000000000E+00 4.261310000000E+05
     4.200368800000E+04 0.000000000000E+00 0.000000000000E+00 6.300000000000E+01
     3.674846960000E+03 0.000000000000E+00 0.000000000000E+00 3.276700000000E+04
     0.000000000000E+00 0.000000000000E+00 0.000000000000E+00 5.600000000000E+01
S48 2024 02 22 22 21 36 0.000000000000E+00 0.000000000000E+00 4.261360000000E+05
     3.733805760000E+04-7.406250000000E-04 0.000000000000E+00 3.100000000000E+01
     1.959029760000E+04-5.175000000000E-04 0.000000000000E+00 2.000000000000E+00
     5.123200000000E+00-9.480000000000E-04 0.000000000000E+00 0.000000000000E+00
E18 2024 02 22 22 10 00 3.571892739274E-04 4.322942004364E-11 0.000000000000E+00
     6.900000000000E+01-3.559375000000E+01 7.378521630757E-09-2.651859631798E-01
    -3.116205334663E-06 1.607093843631E-01 7.411465048790E-06 5.289324825287E+03
     4.254000000000E+05 1.138076186180E-06 2.798172946083E+00-1.763924956322E-06
     8.688101037596E-01 1.879375000000E+02 2.563246922574E+00-1.140976097663E-08
    -3.860875106660E-10 2.580000000000E+02 2.302000000000E+03
     3.120000000000E+00 1.600000000000E+01-2.095475792885E-09 0.000000000000E+00
     4.261400000000E+05
E27 2024 02 22 22 10 00-2.814314211719E-04-9.521272659185E-12 0.000000000000E+00
     6.900000000000E+01-1.421875000000E+01 3.573720288366E-09 2.017185003784E+00
    -6.332993507385E-07 3.005639882758E-04 3.522261977196E-06 5.440597454071E+03
     4.254000000000E+05-5.587935447693E-09 1.699843110111E+00 1.117587089539E-08
     9.662381861674E-01 2.674687500000E+02 6.346185894744E-01-5.764882987659E-09
    -1.153619481453E-10 2.580000000000E+02 2.302000000000E+03
     3.120000000000E+00 0.000000000000E+00 1.862645149231E-09 0.000000000000E+00
     4.261400000000E+05
E13 2024 02 22 22 10 00-2.027361188084E-05-1.847411112976E-13 0.000000000000E+00
     6.900000000000E+01 1.857187500000E+02 2.500461297107E-09 1.251440926806E+00
     8.756294846535E-06 3.492860123515E-04 7.253140211105E-06 5.440614213943E+03
     4.254000000000E+05 2.980232238770E-08-2.492905477919E+00-8.381903171539E-08
     1.000260419056E+00 1.994375000000E+02-6.805567011983E-01-5.407010937995E-09
     3.117987019532E-10 2.580000000000E+02 2.302000000000E+03
     3.120000000000E+00 0.000000000000E+00 4.656612873077E-09 0.000000000000E+00
     4.261400000000E+05
E30 2024 02 22 22 10 00-2.453639172018E-05-3.889510935551E-11 0.000000000000E+00
     6.900000000000E+01-1.318750000000E+01 3.641937415597E-09 2.431467981750E+00
    -6.519258022308E-07 5.805144319311E-04 3.525987267494E-06 5.440607345581E+03
     4.254000000000E+05-9.313225746155E-09 1.702969548912E+00-1.490116119385E-08
     9.640920824193E-01 2.674687500000E+02 1.013542146967E+00-5.791669817724E-09
    -1.425059359442E-10 2.580000000000E+02 2.302000000000E+03
     3.120000000000E+00 0.000000000000E+00 1.862645149231E-09 0.000000000000E+00
     4.261400000000E+05
E21 2024 02 22 22 10 00-5.803912645206E-04-1.918465386552E-12 0.000000000000E+00
     6.900000000000E+01-1.246875000000E+01 3.570148711024E-09 6.953548680471E-01
    -6.109476089478E-07 2.664348576218E-04 3.345310688019E-06 5.440597782135E+03
     4.254000000000E+05 1.862645149231E-09 1.699864989514E+00 2.235174179077E-08
     9.662661088848E-01 2.686875000000E+02 1.159947354452E+00-5.789526871319E-09
    -9.500395729616E-11 2.580000000000E+02 2.302000000000E+03
     3.120000000000E+00 0.000000000000E+00 1.862645149231E-09 0.000000000000E+00
     4.261400000000E+05
E08 2024 02 22 22 10 00-2.280820626765E-04-5.996980689815E-12 0.000000000000E+00
     6.900000000000E+01-1.890937500000E+02 2.732256666600E-09-3.423781054452E-01
    -8.825212717056E-06 1.913786400110E-04 1.046434044838E-05 5.440623968124E+03
     4.254000000000E+05 2.793967723846E-08-3.994716989826E-01 2.421438694000E-08
     9.668410430045E-01 1.187812500000E+02-3.904924862880E-01-5.441655238212E-09
    -2.210806374674E-10 2.580000000000E+02 2.302000000000E+03
     3.120000000000E+00 0.000000000000E+00-3.725290298462E-09 0.000000000000E+00
     4.261400000000E+05
E26 2024 02 22 22 10 00 3.765447181650E-04 1.097077984014E-11 0.000000000000E+00
     6.900000000000E+01 1.671250000000E+02 2.617251876189E-09 8.604564860379E-01
     7.783994078636E-06 2.847060095519E-04 7.361173629761E-06 5.440605121613E+03
     4.254000000000E+05-4.097819328308E-08-2.492471947998E+00-1.862645149231E-08
     9.935798032269E-01 1.961875000000E+02-1.094283451378E+00-5.383081369803E-09
     2.928693420408E-10 2.580000000000E+02 2.302000000000E+03
     3.120000000000E+00 0.000000000000E+00-3.958120942116E-09 0.000000000000E+00
     4.261400000000E+05
E34 2024 02 22 22 10 00-9.612779831514E-05-2.088995643135E-12 0.000000000000E+00
     6.900000000000E+01 1.958125000000E+02 2.540105805603E-09-2.787300445292E+00
     9.080395102501E-06 1.117470674217E-05 6.861984729767E-06 5.440613395691E+03
     4.254000000000E+05 1.117587089539E-08-2.494738701526E+00-1.117587089539E-08
     1.000105766671E+00 2.116562500000E+02-1.347665381661E+00-5.405225149324E-09
     3.785871982478E-10 2.580000000000E+02 2.302000000000E+03
     3.120000000000E+00 0.000000000000E+00 3.725290298462E-09 0.000000000000E+00
     4.261400000000E+05
S58 2024 02 22 22 22 40 0.000000000000E+00 0.000000000000E+00 4.261770000000E+05
     2.478345800000E+04 0.000000000000E+00 0.000000000000E+00 6.300000000000E+01
    -3.411150400000E+04 0.000000000000E+00 0.000000000000E+00 3.276700000000E+04
     0.000000000000E+00 0.000000000000E+00 0.000000000000E+00 4.200000000000E+01
S48 2024 02 22 22 23 44 0.000000000000E+00 0.000000000000E+00 4.262440000000E+05
     3.733796224000E+04-7.487500000000E-04 0.000000000000E+00 3.100000000000E+01
     1.959023232000E+04-5.025000000000E-04 0.000000000000E+00 2.000000000000E+00
     5.001200000000E+00-9.520000000000E-04 0.000000000000E+00 0.000000000000E+00
S58 2024 02 22 22 24 00 0.000000000000E+00 0.000000000000E+00 4.262580000000E+05
     2.478345800000E+04 0.000000000000E+00 0.000000000000E+00 6.300000000000E+01
    -3.411150400000E+04 0.000000000000E+00 0.000000000000E+00 3.276700000000E+04
     0.000000000000E+00 0.000000000000E+00 0.000000000000E+00 4.300000000000E+01
E03 2024 02 22 22 10 00-9.560695616528E-05-2.401634446869E-12 0.000000000000E+00
     6.900000000000E+01-1.874375000000E+02 2.854047453961E-09-3.381100799848E-02
    -8.683651685715E-06 1.846795203164E-04 1.105852425098E-05 5.440617240906E+03
     4.254000000000E+05 4.097819328308E-08-3.989745189587E-01 2.048909664154E-08
     9.609627762997E-01 1.019687500000E+02 6.746193179739E-02-5.466299121871E-09
    -1.492919328940E-10 5.170000000000E+02 2.302000000000E+03
     3.120000000000E+00 0.000000000000E+00 2.793967723846E-09 3.259629011154E-09
     4.262750000000E+05
S31 2024 02 22 22 25 04 3.445893526077E-08 9.094947017729E-12 4.262810000000E+05
    -1.913061816000E+04 2.312500000000E-05-1.250000000000E-08 3.100000000000E+01
    -3.757439304000E+04-1.237500000000E-04 2.500000000000E-08 2.000000000000E+00
    -3.090800000000E+00-8.000000000000E-06 0.000000000000E+00 2.270000000000E+02
S35 2024 02 22 22 25 04 4.144385457039E-08-9.094947017729E-13 4.262810000000E+05
    -2.417681408000E+04 6.587500000000E-04-7.500000000000E-08 3.100000000000E+01
    -3.453562032000E+04-9.512500000000E-04 0.000000000000E+00 2.000000000000E+00
    -1.266480000000E+01-7.200000000000E-04 6.250000000000E-08 1.730000000000E+02
S33 2024 02 22 22 25 04 5.494803190231E-08 3.637978807092E-12 4.262810000000E+05
    -2.661860504000E+04 2.187500000000E-05-3.750000000000E-08 3.100000000000E+01
    -3.269861552000E+04-3.131250000000E-04 1.250000000000E-08 2.000000000000E+00
    -2.270760000000E+01 1.840000000000E-04 1.250000000000E-07 1.270000000000E+02
S36 2024 02 22 22 24 32 0.000000000000E+00 0.000000000000E+00 4.262830000000E+05
     4.200368800000E+04 0.000000000000E+00 0.000000000000E+00 6.300000000000E+01
     3.674846960000E+03 0.000000000000E+00 0.000000000000E+00 3.276700000000E+04
     0.000000000000E+00 0.000000000000E+00 0.000000000000E+00 5.700000000000E+01
S58 2024 02 22 22 25 20 0.000000000000E+00 0.000000000000E+00 4.263370000000E+05
     2.478345800000E+04 0.000000000000E+00 0.000000000000E+00 6.300000000000E+01
    -3.411150400000E+04 0.000000000000E+00 0.000000000000E+00 3.276700000000E+04
     0.000000000000E+00 0.000000000000E+00 0.000000000000E+00 4.400000000000E+01
